{
  "type": "FeatureCollection",
  "features": [
    {
      "type": "Feature",
      "properties": {
        "norad_id": 36269,
        "name": "FENGYUN 1C DEB",
        "group": "fengyun-1c-debris",
        "lat": 64.95382496480228,
        "lon": -83.48483160068878,
        "alt_km": 959.0684721989091,
        "timestamp": "2025-12-20T07:33:51.101248+00:00",
        "meta_object_name": "FENGYUN 1C DEB",
        "meta_object_id": "1999-025DWW",
        "meta_epoch": "2025-12-14T01:28:51.707712",
        "meta_mean_motion": 14.27043075,
        "meta_eccentricity": 0.02331074,
        "meta_inclination": 99.1079,
        "meta_ra_of_asc_node": 290.0784,
        "meta_arg_of_pericenter": 275.9651,
        "meta_mean_anomaly": 81.5008,
        "meta_ephemeris_type": 0,
        "meta_classification_type": "U",
        "meta_norad_cat_id": 36269,
        "meta_element_set_no": 999,
        "meta_rev_at_epoch": 87735,
        "meta_bstar": 0.00079666975,
        "meta_mean_motion_dot": 2.532e-05,
        "meta_mean_motion_ddot": 0,
        "tle_line1": "1 36269U 99025DWW 25348.06170958  .00002532  00000+0  79667-3 0  9998",
        "tle_line2": "2 36269  99.1079 290.0784 0233107 275.9651  81.5008 14.27043075877359"
      },
      "geometry": {
        "type": "Point",
        "coordinates": [
          -83.48483160068878,
          64.95382496480228
        ]
      }
    },
    {
      "type": "Feature",
      "properties": {
        "norad_id": 36272,
        "name": "FENGYUN 1C DEB",
        "group": "fengyun-1c-debris",
        "lat": -63.49018337647045,
        "lon": 31.99341047506066,
        "alt_km": 720.6820654755729,
        "timestamp": "2025-12-20T07:33:51.101258+00:00",
        "meta_object_name": "FENGYUN 1C DEB",
        "meta_object_id": "1999-025DWZ",
        "meta_epoch": "2025-12-15T09:29:34.780416",
        "meta_mean_motion": 14.17259115,
        "meta_eccentricity": 0.01679127,
        "meta_inclination": 99.1362,
        "meta_ra_of_asc_node": 225.7589,
        "meta_arg_of_pericenter": 260.5869,
        "meta_mean_anomaly": 97.6289,
        "meta_ephemeris_type": 0,
        "meta_classification_type": "U",
        "meta_norad_cat_id": 36272,
        "meta_element_set_no": 999,
        "meta_rev_at_epoch": 63654,
        "meta_bstar": 0.00052291356,
        "meta_mean_motion_dot": 1.164e-05,
        "meta_mean_motion_ddot": 0,
        "tle_line1": "1 36272U 99025DWZ 25349.39554144  .00001164  00000+0  52291-3 0  9996",
        "tle_line2": "2 36272  99.1362 225.7589 0167912 260.5869  97.6289 14.17259115636543"
      },
      "geometry": {
        "type": "Point",
        "coordinates": [
          31.99341047506066,
          -63.49018337647045
        ]
      }
    },
    {
      "type": "Feature",
      "properties": {
        "norad_id": 36273,
        "name": "FENGYUN 1C DEB",
        "group": "fengyun-1c-debris",
        "lat": -29.259996109942396,
        "lon": 38.91736412098163,
        "alt_km": 874.8763044163215,
        "timestamp": "2025-12-20T07:33:51.101268+00:00",
        "meta_object_name": "FENGYUN 1C DEB",
        "meta_object_id": "1999-025DXA",
        "meta_epoch": "2025-12-10T21:07:00.418080",
        "meta_mean_motion": 14.16564043,
        "meta_eccentricity": 0.0096501,
        "meta_inclination": 99.6045,
        "meta_ra_of_asc_node": 214.1863,
        "meta_arg_of_pericenter": 353.8475,
        "meta_mean_anomaly": 6.1504,
        "meta_ephemeris_type": 0,
        "meta_classification_type": "U",
        "meta_norad_cat_id": 36273,
        "meta_element_set_no": 999,
        "meta_rev_at_epoch": 66207,
        "meta_bstar": 0.00042955,
        "meta_mean_motion_dot": 8.45e-06,
        "meta_mean_motion_ddot": 0,
        "tle_line1": "1 36273U 99025DXA 25344.87986595  .00000845  00000+0  42955-3 0  9995",
        "tle_line2": "2 36273  99.6045 214.1863 0096501 353.8475   6.1504 14.16564043662078"
      },
      "geometry": {
        "type": "Point",
        "coordinates": [
          38.91736412098163,
          -29.259996109942396
        ]
      }
    },
    {
      "type": "Feature",
      "properties": {
        "norad_id": 36274,
        "name": "FENGYUN 1C DEB",
        "group": "fengyun-1c-debris",
        "lat": 52.352041132884416,
        "lon": 56.72104612057485,
        "alt_km": 849.5666271149958,
        "timestamp": "2025-12-20T07:33:51.101278+00:00",
        "meta_object_name": "FENGYUN 1C DEB",
        "meta_object_id": "1999-025DXB",
        "meta_epoch": "2025-12-17T22:47:53.566656",
        "meta_mean_motion": 14.23538115,
        "meta_eccentricity": 0.00628177,
        "meta_inclination": 99.1393,
        "meta_ra_of_asc_node": 66.31,
        "meta_arg_of_pericenter": 216.0031,
        "meta_mean_anomaly": 323.0496,
        "meta_ephemeris_type": 0,
        "meta_classification_type": "U",
        "meta_norad_cat_id": 36274,
        "meta_element_set_no": 999,
        "meta_rev_at_epoch": 63059,
        "meta_bstar": 0.0023477319,
        "meta_mean_motion_dot": 5.408e-05,
        "meta_mean_motion_ddot": 0,
        "tle_line1": "1 36274U 99025DXB 25351.94992554  .00005408  00000+0  23477-2 0  9991",
        "tle_line2": "2 36274  99.1393  66.3100 0062817 216.0031 323.0496 14.23538115630594"
      },
      "geometry": {
        "type": "Point",
        "coordinates": [
          56.72104612057485,
          52.352041132884416
        ]
      }
    },
    {
      "type": "Feature",
      "properties": {
        "norad_id": 36278,
        "name": "FENGYUN 1C DEB",
        "group": "fengyun-1c-debris",
        "lat": 63.574896739316294,
        "lon": 111.67639305277065,
        "alt_km": 867.3764949281449,
        "timestamp": "2025-12-20T07:33:51.101288+00:00",
        "meta_object_name": "FENGYUN 1C DEB",
        "meta_object_id": "1999-025DXF",
        "meta_epoch": "2025-12-18T00:48:19.487232",
        "meta_mean_motion": 14.17390163,
        "meta_eccentricity": 0.00606793,
        "meta_inclination": 99.1246,
        "meta_ra_of_asc_node": 270.466,
        "meta_arg_of_pericenter": 275.7743,
        "meta_mean_anomaly": 83.6515,
        "meta_ephemeris_type": 0,
        "meta_classification_type": "U",
        "meta_norad_cat_id": 36278,
        "meta_element_set_no": 999,
        "meta_rev_at_epoch": 93551,
        "meta_bstar": 0.00036894737,
        "meta_mean_motion_dot": 7.13e-06,
        "meta_mean_motion_ddot": 0,
        "tle_line1": "1 36278U 99025DXF 25352.03355888  .00000713  00000+0  36895-3 0  9992",
        "tle_line2": "2 36278  99.1246 270.4660 0060679 275.7743  83.6515 14.17390163935513"
      },
      "geometry": {
        "type": "Point",
        "coordinates": [
          111.67639305277065,
          63.574896739316294
        ]
      }
    },
    {
      "type": "Feature",
      "properties": {
        "norad_id": 36279,
        "name": "FENGYUN 1C DEB",
        "group": "fengyun-1c-debris",
        "lat": 65.45806895045614,
        "lon": -47.25477387387512,
        "alt_km": 798.7114994306385,
        "timestamp": "2025-12-20T07:33:51.101298+00:00",
        "meta_object_name": "FENGYUN 1C DEB",
        "meta_object_id": "1999-025DXG",
        "meta_epoch": "2025-12-18T17:54:37.410912",
        "meta_mean_motion": 14.14731224,
        "meta_eccentricity": 0.00627999,
        "meta_inclination": 98.5619,
        "meta_ra_of_asc_node": 330.5051,
        "meta_arg_of_pericenter": 38.3963,
        "meta_mean_anomaly": 322.1656,
        "meta_ephemeris_type": 0,
        "meta_classification_type": "U",
        "meta_norad_cat_id": 36279,
        "meta_element_set_no": 999,
        "meta_rev_at_epoch": 89124,
        "meta_bstar": 0.00011213671,
        "meta_mean_motion_dot": 1.78e-06,
        "meta_mean_motion_ddot": 0,
        "tle_line1": "1 36279U 99025DXG 25352.74626633  .00000178  00000+0  11214-3 0  9993",
        "tle_line2": "2 36279  98.5619 330.5051 0062799  38.3963 322.1656 14.14731224891247"
      },
      "geometry": {
        "type": "Point",
        "coordinates": [
          -47.25477387387512,
          65.45806895045614
        ]
      }
    },
    {
      "type": "Feature",
      "properties": {
        "norad_id": 36280,
        "name": "FENGYUN 1C DEB",
        "group": "fengyun-1c-debris",
        "lat": -31.12855783837159,
        "lon": 28.458819435767893,
        "alt_km": 854.5003328035309,
        "timestamp": "2025-12-20T07:33:51.101308+00:00",
        "meta_object_name": "FENGYUN 1C DEB",
        "meta_object_id": "1999-025DXH",
        "meta_epoch": "2025-12-17T08:15:20.207232",
        "meta_mean_motion": 14.09753782,
        "meta_eccentricity": 0.00629902,
        "meta_inclination": 98.7668,
        "meta_ra_of_asc_node": 20.2178,
        "meta_arg_of_pericenter": 52.5163,
        "meta_mean_anomaly": 325.9805,
        "meta_ephemeris_type": 0,
        "meta_classification_type": "U",
        "meta_norad_cat_id": 36280,
        "meta_element_set_no": 999,
        "meta_rev_at_epoch": 86419,
        "meta_bstar": 0.00066114135,
        "meta_mean_motion_dot": 1.14e-05,
        "meta_mean_motion_ddot": 0,
        "tle_line1": "1 36280U 99025DXH 25351.34398388  .00001140  00000+0  66114-3 0  9992",
        "tle_line2": "2 36280  98.7668  20.2178 0062990  52.5163 325.9805 14.09753782864199"
      },
      "geometry": {
        "type": "Point",
        "coordinates": [
          28.458819435767893,
          -31.12855783837159
        ]
      }
    }
  ]
}